OBJECT_NAME,OBJECT_ID,EPOCH,MEAN_MOTION,ECCENTRICITY,INCLINATION,RA_OF_ASC_NODE,ARG_OF_PERICENTER,MEAN_ANOMALY,EPHEMERIS_TYPE,CLASSIFICATION_TYPE,NORAD_CAT_ID,ELEMENT_SET_NO,REV_AT_EPOCH,BSTAR,MEAN_MOTION_DOT,MEAN_MOTION_DDOT
SWARM B,2013-067A,2026-06-18T05:55:22.085760,15.28556661,.00032677,87.7440,341.9942,85.4563,274.7059,0,U,39451,999,68340,.9534737E-4,.2683E-4,0
SWARM A,2013-067B,2026-06-18T06:02:54.088224,15.50971237,.00030156,87.3320,55.8460,95.3917,264.7688,0,U,39452,999,70641,.1439075E-3,.8383E-4,0
SWARM C,2013-067C,2026-06-18T06:02:44.399328,15.50969537,.00030109,87.3320,54.4272,95.7668,264.3936,0,U,39453,999,70637,.14175992E-3,.8258E-4,0
BRITE-CA1 (TORONTO),2014-033L,2026-06-18T07:53:22.263360,14.72678097,.00772168,97.9741,298.2356,273.2949,85.9428,0,U,40020,999,64238,.94994543E-4,.58E-5,0
OCO 2,2014-035A,2026-06-18T06:06:02.426400,14.57112017,.0001502,98.2017,110.5310,84.8340,275.3030,0,U,40059,999,63620,.81022724E-4,.32E-5,0
BRITE-PL2 (HEWELIUSZ),2014-049B,2026-06-18T05:50:42.009792,14.94596501,.0015313,97.9099,281.2515,105.3590,254.9323,0,U,40119,999,64160,.15024742E-3,.157E-4,0
MMS 1,2015-011A,2026-06-18T08:00:01.999872,0.28351414,.83234956,72.2051,348.7548,167.4730,55.3814,0,U,40482,999,138,0,-.723E-5,0
MMS 2,2015-011B,2026-06-18T08:00:01.999872,0.28351432,.83242803,72.2053,348.7570,167.4786,55.3701,0,U,40483,999,138,0,-.723E-5,0
MMS 3,2015-011C,2026-06-18T08:00:01.999872,0.28351396,.83230743,72.2044,348.7573,167.4809,55.3539,0,U,40484,999,138,0,-.723E-5,0
MMS 4,2015-011D,2026-06-18T08:00:01.999872,0.28351330,.8323074,72.2041,348.7574,167.4810,55.3536,0,U,40485,999,138,0,-.723E-5,0
ASTROSAT,2015-052A,2026-06-18T04:01:43.467744,14.82508881,.00077217,5.9954,148.2888,46.0722,314.0042,0,U,40930,999,57997,.87537357E-4,.139E-4,0
DAMPE,2015-078A,2026-06-18T06:42:43.002432,15.30786879,.00137806,97.4550,174.7518,73.6339,286.6415,0,U,41173,999,58471,.28343655E-4,.767E-5,0
PISAT,2016-059B,2026-06-17T23:04:24.956544,14.68984509,.00284433,97.8178,169.3809,200.2325,159.7756,0,U,41784,999,51985,.11935816E-3,.656E-5,0
HXMT (HUIYAN),2017-034A,2026-06-18T06:03:43.133184,15.18481812,.00307207,43.0125,177.1085,154.0537,206.1859,0,U,42758,999,49782,.10619477E-3,.2008E-4,0
FLYING LAPTOP,2017-042G,2026-06-18T06:02:56.829696,15.01150483,.00195959,97.4691,324.7430,118.1419,242.1788,0,U,42831,999,48661,.19836078E-3,.2494E-4,0
ZHANGHENG 1-01 (CSES-1),2018-015C,2026-06-18T06:10:49.888704,15.20822241,.00170547,97.6874,334.9358,262.3585,97.5713,0,U,43194,999,46480,.25049131E-3,.5473E-4,0
SALSAT,2020-068K,2026-06-17T23:54:00.626976,15.29809762,.00080177,97.8849,172.1096,304.7591,55.2892,0,U,46495,999,31548,.22101641E-3,.6301E-4,0
IXPE,2021-121A,2026-06-18T08:00:01.999872,15.10260928,.00070969,0.2306,309.3501,92.6422,350.3108,0,U,49954,999,574,.41163266E-3,.7864E-4,0
SMILE,2026-109A,2026-06-07T09:11:54.544416,7.54049028,.3310191,69.9787,209.3069,288.5544,45.7342,0,U,69123,999,248,-.36778157E-3,-.41E-6,0
