SWARM B                 
1 39451U 13067A   26169.24678340  .00002683  00000+0  95347-4 0  9997
2 39451  87.7440 341.9942 0003267  85.4563 274.7059 15.28556661683405
SWARM A                 
1 39452U 13067B   26169.25201491  .00008383  00000+0  14391-3 0  9990
2 39452  87.3320  55.8460 0003015  95.3917 264.7688 15.50971237706418
SWARM C                 
1 39453U 13067C   26169.25190277  .00008258  00000+0  14176-3 0  9992
2 39453  87.3320  54.4272 0003010  95.7668 264.3936 15.50969537706374
BRITE-CA1 (TORONTO)     
1 40020U 14033L   26169.32872990  .00000580  00000+0  94995-4 0  9993
2 40020  97.9741 298.2356 0077216 273.2949  85.9428 14.72678097642389
OCO 2                   
1 40059U 14035A   26169.25419475  .00000320  00000+0  81023-4 0  9994
2 40059  98.2017 110.5310 0001502  84.8340 275.3030 14.57112017636209
BRITE-PL2 (HEWELIUSZ)   
1 40119U 14049B   26169.24354178  .00001570  00000+0  15025-3 0  9999
2 40119  97.9099 281.2515 0015313 105.3590 254.9323 14.94596501641609
MMS 1                   
1 40482U 15011A   26169.33335648 -.00000723  00000+0  00000+0 0  9996
2 40482  72.2051 348.7548 8323495 167.4730  55.3814  0.28351414  1384
MMS 2                   
1 40483U 15011B   26169.33335648 -.00000723  00000+0  00000+0 0  9997
2 40483  72.2053 348.7570 8324280 167.4786  55.3701  0.28351432  1381
MMS 3                   
1 40484U 15011C   26169.33335648 -.00000723  00000+0  00000+0 0  9998
2 40484  72.2044 348.7573 8323074 167.4809  55.3539  0.28351396  1389
MMS 4                   
1 40485U 15011D   26169.33335648 -.00000723  00000+0  00000+0 0  9999
2 40485  72.2041 348.7574 8323074 167.4810  55.3536  0.28351330  1385
ASTROSAT                
1 40930U 15052A   26169.16786421  .00001390  00000+0  87537-4 0  9994
2 40930   5.9954 148.2888 0007721  46.0722 314.0042 14.82508881579973
DAMPE                   
1 41173U 15078A   26169.27966438  .00000767  00000+0  28344-4 0  9990
2 41173  97.4550 174.7518 0013780  73.6339 286.6415 15.30786879584712
PISAT                   
1 41784U 16059B   26168.96139996  .00000656  00000+0  11936-3 0  9999
2 41784  97.8178 169.3809 0028443 200.2325 159.7756 14.68984509519859
HXMT (HUIYAN)           
1 42758U 17034A   26169.25258256  .00002008  00000+0  10619-3 0  9999
2 42758  43.0125 177.1085 0030720 154.0537 206.1859 15.18481812497829
FLYING LAPTOP           
1 42831U 17042G   26169.25204664  .00002494  00000+0  19836-3 0  9993
2 42831  97.4691 324.7430 0019595 118.1419 242.1788 15.01150483486618
ZHANGHENG 1-01 (CSES-1) 
1 43194U 18015C   26169.25752186  .00005473  00000+0  25049-3 0  9997
2 43194  97.6874 334.9358 0017054 262.3585  97.5713 15.20822241464808
SALSAT                  
1 46495U 20068K   26168.99584059  .00006301  00000+0  22102-3 0  9995
2 46495  97.8849 172.1096 0008017 304.7591  55.2892 15.29809762315487
IXPE                    
1 49954U 21121A   26169.33335648  .00007864  00000+0  41163-3 0  9999
2 49954   0.2306 309.3501 0007096  92.6422 350.3108 15.10260928  5742
SMILE                   
1 69123U 26109A   26158.38327019 -.00000041  00000+0 -36778-3 0  9994
2 69123  69.9787 209.3069 3310191 288.5544  45.7342  7.54049028  2480
